NORAD_CAT_ID,OBJECT_NAME,OBJECT_TYPE,EPOCH,MEAN_MOTION,ECCENTRICITY,INCLINATION,RA_OF_ASC_NODE,ARG_OF_PERICENTER,MEAN_ANOMALY,BSTAR,MEAN_MOTION_DOT,MEAN_MOTION_DDOT,TLE_LINE0,TLE_LINE1,TLE_LINE2,SEMIMAJOR_AXIS,PERIOD,APOGEE,PERIGEE,DECAYED
49760.0,STARLINK-3199,PAYLOAD,2022-09-26 11:37:35,15.08834837,0.0001675,53.2186,36.4149,52.3994,307.715,-1.9445e-05,-5.97e-06,0.0,0 STARLINK-3199,1 49760U 21115AN  22269.48443638 -.00000597  00000-0 -19445-4 0  9997,2 49760  53.2186  36.4149 0001675  52.3994 307.7150 15.08834837 45437,6917.896,95.438,540.92,538.602,0.0
49760.0,STARLINK-3199,PAYLOAD,2022-09-27 11:28:22,15.08847132,0.0001751999999999,53.2192,31.9543,53.1572,306.9581,0.00025387,3.755e-05,0.0,0 STARLINK-3199,1 49760U 21115AN  22270.47803550  .00003755  00000-0  25387-3 0  9999,2 49760  53.2192  31.9543 0001752  53.1572 306.9581 15.08847132 46699,6917.859,95.437,540.936,538.512,0.0
49760.0,STARLINK-3199,PAYLOAD,2022-09-27 14:39:08,15.08844476,0.0001824,53.2192,31.36,51.0375,309.078,0.00020538,2.982e-05,0.0,0 STARLINK-3199,1 49760U 21115AN  22270.61051660  .00002982  00000-0  20538-3 0  9996,2 49760  53.2192  31.3600 0001824  51.0375 309.0780 15.08844476 45608,6917.8669999999975,95.437,540.994,538.47,0.0
49760.0,STARLINK-3199,PAYLOAD,2022-09-28 11:19:09,15.08835172,0.0001761,53.2184,27.4959,59.0288,301.0877,-2.1091e-05,-6.24e-06,0.0,0 STARLINK-3199,1 49760U 21115AN  22271.47163959 -.00000624  00000-0 -21091-4 0  9995,2 49760  53.2184  27.4959 0001761  59.0288 301.0877 15.08835172 45739,6917.895,95.438,540.9780000000002,538.5419999999998,0.0
49760.0,STARLINK-3199,PAYLOAD,2022-09-29 12:45:19,15.08839769,0.0001676999999999,53.2172,22.7362,54.4822,305.6326,0.00015159,2.125e-05,0.0,0 STARLINK-3199,1 49760U 21115AN  22272.53147854  .00002125  00000-0  15159-3 0  9992,2 49760  53.2172  22.7362 0001677  54.4822 305.6326 15.08839769 45893,6917.880999999999,95.438,540.906,538.586,0.0
49760.0,STARLINK-3199,PAYLOAD,2022-09-29 19:06:52,15.088445000000002,0.0001739,53.2171,21.5473,50.0027,310.1118,0.00023277,3.419e-05,0.0,0 STARLINK-3199,1 49760U 21115AN  22272.79643816  .00003419  00000-0  23277-3 0  9996,2 49760  53.2171  21.5473 0001739  50.0027 310.1118 15.08844500 47048,6917.8669999999975,95.437,540.935,538.529,0.0
49760.0,STARLINK-3199,PAYLOAD,2022-09-29 20:42:15,15.08845182,0.0001811999999999,53.2171,21.2501,47.5915,312.523,0.00023213,3.409e-05,0.0,0 STARLINK-3199,1 49760U 21115AN  22272.86267718  .00003409  00000-0  23213-3 0  9996,2 49760  53.2171  21.2501 0001812  47.5915 312.5230 15.08845182 45941,6917.865,95.437,540.9830000000002,538.476,0.0
49760.0,STARLINK-3199,PAYLOAD,2022-09-30 11:00:43,15.08844241,0.0001792,53.217,18.5737,51.7267,308.3886,0.00018416,2.644e-05,0.0,0 STARLINK-3199,1 49760U 21115AN  22273.45883870  .00002644  00000-0  18416-3 0  9994,2 49760  53.2170  18.5737 0001792  51.7267 308.3886 15.08844241 46030,6917.8669999999975,95.437,540.972,538.493,0.0
49760.0,STARLINK-3199,PAYLOAD,2022-09-30 20:33:02,15.08863204,0.0001837,53.2171,16.7902,46.1274,313.987,0.0009896,0.00015507,0.0,0 STARLINK-3199,1 49760U 21115AN  22273.85627432  .00015507  00000-0  98960-3 0  9992,2 49760  53.2171  16.7902 0001837  46.1274 313.9870 15.08863204 46092,6917.809,95.436,540.945,538.404,0.0
49760.0,STARLINK-3199,PAYLOAD,2022-10-01 02:54:34,15.08871397,0.0001851,53.217,15.6008,46.4649,313.6497,0.0010585,0.00016613,0.0,0 STARLINK-3199,1 49760U 21115AN  22274.12122916  .00016613  00000-0  10585-2 0  9995,2 49760  53.2170  15.6008 0001851  46.4649 313.6497 15.08871397 47243,6917.784000000002,95.436,540.93,538.369,0.0
49760.0,STARLINK-3199,PAYLOAD,2022-10-01 12:26:52,15.08862871,0.0001754999999999,53.2168,13.8164,46.3994,313.7144,0.00046091,7.06e-05,0.0,0 STARLINK-3199,1 49760U 21115AN  22274.51866617  .00007060  00000-0  46091-3 0  9999,2 49760  53.2168  13.8164 0001755  46.3994 313.7144 15.08862871 47302,6917.81,95.436,540.89,538.461,0.0
49760.0,STARLINK-3199,PAYLOAD,2022-10-01 17:13:02,15.0885117,0.0001788,53.2168,12.9242,47.6542,312.4602,9.2582e-05,1.186e-05,0.0,0 STARLINK-3199,1 49760U 21115AN  22274.71738757  .00001186  00000-0  92582-4 0  9994,2 49760  53.2168  12.9242 0001788  47.6542 312.4602 15.08851170 47336,6917.846,95.437,540.948,538.474,0.0
49760.0,STARLINK-3199,PAYLOAD,2022-10-01 18:48:25,15.08849734,0.0001761999999999,53.2169,12.6268,48.4005,311.7137,7.933199999999999e-05,9.75e-06,0.0,0 STARLINK-3199,1 49760U 21115AN  22274.78362748  .00000975  00000-0  79332-4 0  9997,2 49760  53.2169  12.6268 0001762  48.4005 311.7137 15.08849734 46233,6917.851,95.437,540.935,538.497,0.0
49760.0,STARLINK-3199,PAYLOAD,2022-10-02 05:56:07,15.08840674,0.0001804,53.2168,10.5453,41.4407,318.6722,-7.9548e-05,-1.554e-05,0.0,0 STARLINK-3199,1 49760U 21115AN  22275.24730972 -.00001554  00000-0 -79548-4 0  9992,2 49760  53.2168  10.5453 0001804  41.4407 318.6722 15.08840674 47412,6917.878000000002,95.438,540.991,538.495,0.0
49760.0,STARLINK-3199,PAYLOAD,2022-10-02 12:17:40,15.08829924,0.0001778,53.2166,9.3562,42.4852,317.6278,-0.00022224,-3.822e-05,0.0,0 STARLINK-3199,1 49760U 21115AN  22275.51227391 -.00003822  00000-0 -22224-3 0  9996,2 49760  53.2166   9.3562 0001778  42.4852 317.6278 15.08829924 46343,6917.911,95.438,541.006,538.5459999999998,0.0
49760.0,STARLINK-3199,PAYLOAD,2022-10-02 18:39:13,15.08830245,0.0001841,53.2164,8.1666,41.1173,318.9958,0.00036948,5.596e-05,0.0,0 STARLINK-3199,1 49760U 21115AN  22275.77723706  .00005596  00000-0  36948-3 0  9991,2 49760  53.2164   8.1666 0001841  41.1173 318.9958 15.08830245 46387,6917.91,95.438,541.049,538.502,0.0
49760.0,STARLINK-3199,PAYLOAD,2022-10-03 12:08:27,15.08858594,0.0001807,53.2162,4.8959,39.4372,320.6751,0.0016965999999999,0.00026831,0.0,0 STARLINK-3199,1 49760U 21115AN  22276.50587790  .00026831  00000-0  16966-2 0  9996,2 49760  53.2162   4.8959 0001807  39.4372 320.6751 15.08858594 47600,6917.824000000001,95.436,540.939,538.439,0.0
49760.0,STARLINK-3199,PAYLOAD,2022-10-03 18:30:00,15.08854316,0.0001853,53.2162,3.7059,38.5727,321.5397,0.00090995,0.00014229,0.0,0 STARLINK-3199,1 49760U 21115AN  22276.77083665  .00014229  00000-0  90995-3 0  9990,2 49760  53.2162   3.7059 0001853  38.5727 321.5397 15.08854316 47642,6917.837,95.437,540.984,538.42,0.0
49760.0,STARLINK-3199,PAYLOAD,2022-10-04 11:59:13,15.08868975,0.0001848,53.2165,0.4349,40.6284,319.4846,0.00078132,0.00012178,0.0,0 STARLINK-3199,1 49760U 21115AN  22277.49946699  .00012178  00000-0  78132-3 0  9995,2 49760  53.2165   0.4349 0001848  40.6284 319.4846 15.08868975 46647,6917.792,95.436,540.935,538.378,0.0
49760.0,STARLINK-3199,PAYLOAD,2022-10-04 16:45:22,15.08908309,0.0002092,53.2164,359.5432,46.9982,313.1185,0.0022319,0.00035479,0.0,0 STARLINK-3199,1 49760U 21115AN  22277.69817483  .00035479  00000-0  22319-2 0  9999,2 49760  53.2164 359.5432 0002092  46.9982 313.1185 15.08908309 46679,6917.672,95.433,540.984,538.089,0.0
49760.0,STARLINK-3199,PAYLOAD,2022-10-05 05:28:25,15.08901802,0.0001978,53.2166,357.1637,42.9388,317.1758,0.00087845,0.00013744,0.0,0 STARLINK-3199,1 49760U 21115AN  22278.22807676  .00013744  00000-0  87845-3 0  9999,2 49760  53.2166 357.1637 0001978  42.9388 317.1758 15.08901802 47863,6917.691,95.434,540.925,538.188,0.0
49760.0,STARLINK-3199,PAYLOAD,2022-10-05 11:49:57,15.08878727,0.0001712,53.2168,355.9743,38.0308,322.0805,-0.0002701,-4.589e-05,0.0,0 STARLINK-3199,1 49760U 21115AN  22278.49303165 -.00004589  00000-0 -27010-3 0  9999,2 49760  53.2168 355.9743 0001712  38.0308 322.0805 15.08878727 47905,6917.762,95.435,540.811,538.443,0.0
49760.0,STARLINK-3199,PAYLOAD,2022-10-05 16:36:07,15.08872931,0.0001769,53.2168,355.0822,38.021,322.0907,-0.00011936,-2.189e-05,0.0,0 STARLINK-3199,1 49760U 21115AN  22278.69175062 -.00002189  00000-0 -11936-3 0  9998,2 49760  53.2168 355.0822 0001769  38.0210 322.0907 15.08872931 46822,6917.78,95.435,540.868,538.4209999999998,0.0
49760.0,STARLINK-3199,PAYLOAD,2022-10-06 11:40:46,15.08824852,0.0001923,53.2171,351.5139,41.0772,319.0365,0.00026095,3.866e-05,0.0,0 STARLINK-3199,1 49760U 21115AN  22279.48664717  .00003866  00000-0  26095-3 0  9999,2 49760  53.2171 351.5139 0001923  41.0772 319.0365 15.08824852 46943,6917.927,95.439,541.122,538.461,0.0
49760.0,STARLINK-3199,PAYLOAD,2022-10-07 09:56:11,15.08830925,0.0001816,53.2172,347.3512,38.1182,321.9938,0.00054393,8.377e-05,0.0,0 STARLINK-3199,1 49760U 21115AN  22280.41401812  .00008377  00000-0  54393-3 0  9993,2 49760  53.2172 347.3512 0001816  38.1182 321.9938 15.08830925 47087,6917.908,95.438,541.029,538.5169999999998,0.0
49760.0,STARLINK-3199,PAYLOAD,2022-10-07 21:03:53,15.08831798,0.0001939,53.217,345.2696,39.8012,320.3122,0.00022274,3.258e-05,0.0,0 STARLINK-3199,1 49760U 21115AN  22280.87770177  .00003258  00000-0  22274-3 0  9992,2 49760  53.2170 345.2696 0001939  39.8012 320.3122 15.08831798 47156,6917.905,95.438,541.112,538.429,0.0
49760.0,STARLINK-3199,PAYLOAD,2022-10-08 05:00:49,15.08825991,0.0001836,53.217,343.7826,41.9288,318.1844,0.00010694,1.414e-05,0.0,0 STARLINK-3199,1 49760U 21115AN  22281.20890537  .00001414  00000-0  10694-3 0  9998,2 49760  53.2170 343.7826 0001836  41.9288 318.1844 15.08825991 48312,6917.9230000000025,95.438,541.058,538.518,0.0
49760.0,STARLINK-3199,PAYLOAD,2022-10-08 11:22:22,15.08813045,0.0001828,53.2171,342.5926,38.5878,321.5245,-2.4536e-05,-6.78e-06,0.0,0 STARLINK-3199,1 49760U 21115AN  22281.47387560 -.00000678  00000-0 -24536-4 0  9998,2 49760  53.2171 342.5926 0001828  38.5878 321.5245 15.08813045 48353,6917.9630000000025,95.439,541.092,538.563,0.0
49760.0,STARLINK-3199,PAYLOAD,2022-10-09 04:51:37,15.08837362,0.0001684,53.2166,339.3216,44.997,315.1158,0.00037826,5.737e-05,0.0,0 STARLINK-3199,1 49760U 21115AN  22282.20251290  .00005737  00000-0  37826-3 0  9994,2 49760  53.2166 339.3216 0001684  44.9970 315.1158 15.08837362 48469,6917.888000000001,95.438,540.918,538.5880000000002,0.0
